IRIDIUM 116             
1 43072U 17083C   25047.83540699  .00000107  00000+0  31119-4 0  9993
2 43072  86.4033 164.8808 0002049  91.9816 268.1615 14.34218205374605
IRIDIUM 130             
1 43073U 17083D   25047.87346203  .00000318  00000+0  10645-3 0  9997
2 43073  86.4042 165.0927 0002240  91.8796 268.2656 14.34217737374559
IRIDIUM 151             
1 43074U 17083E   25047.84809197  .00000029  00000+0  32889-5 0  9996
2 43074  86.4035 164.9224 0001967  94.2588 265.8832 14.34217782374572
IRIDIUM 134             
1 43075U 17083F   25047.81637255  .00000562  00000+0  19347-3 0  9992
2 43075  86.4039 164.9371 0002215  92.6921 267.4528 14.34217290374530
IRIDIUM 137             
1 43076U 17083G   25047.82906347  .00000309  00000+0  10327-3 0  9993
2 43076  86.4038 165.0143 0001810  82.6207 277.5195 14.34218412374602
IRIDIUM 141             
1 43077U 17083H   25047.61341569  .00000664  00000+0  22991-3 0  9994
2 43077  86.4034 164.9629 0002155 107.3787 252.7645 14.34219099374570
IRIDIUM 153             
1 43078U 17083J   25047.49582768  .00000617  00000+0  21323-3 0  9995
2 43078  86.4001 133.5347 0002242 111.8428 248.3006 14.34216176375669
IRIDIUM 131             
1 43079U 17083K   25047.81002945  .00000589  00000+0  20335-3 0  9996
2 43079  86.4039 165.0339 0001876  99.6302 260.5106 14.34214952374530
